{
  "type": "FeatureCollection",
  "features": [
    {
      "type": "Feature",
      "properties": {
        "norad_id": 25590,
        "name": "COSMOS 2361",
        "group": "musson",
        "lat": -5.29918448550244,
        "lon": 153.99186386935173,
        "alt_km": 974.015315453712,
        "timestamp": "2025-12-27T06:41:31.196273+00:00",
        "meta_object_name": "COSMOS 2361",
        "meta_object_id": "1998-076A",
        "meta_epoch": "2025-12-26T23:03:30.281760",
        "meta_mean_motion": 13.73219085,
        "meta_eccentricity": 0.00303988,
        "meta_inclination": 82.9346,
        "meta_ra_of_asc_node": 333.5679,
        "meta_arg_of_pericenter": 224.4841,
        "meta_mean_anomaly": 189.4518,
        "meta_ephemeris_type": 0,
        "meta_classification_type": "U",
        "meta_norad_cat_id": 25590,
        "meta_element_set_no": 999,
        "meta_rev_at_epoch": 35306,
        "meta_bstar": 6.5783468e-05,
        "meta_mean_motion_dot": 7.6e-07,
        "meta_mean_motion_ddot": 0,
        "tle_line1": "1 25590U 98076A   25360.96076715  .00000076  00000+0  65783-4 0  9993",
        "tle_line2": "2 25590  82.9346 333.5679 0030398 224.4841 189.4518 13.73219085353061"
      },
      "geometry": {
        "type": "Point",
        "coordinates": [
          153.99186386935173,
          -5.29918448550244
        ]
      }
    },
    {
      "type": "Feature",
      "properties": {
        "norad_id": 26818,
        "name": "COSMOS 2378",
        "group": "musson",
        "lat": -52.86839070102678,
        "lon": -20.4935602914847,
        "alt_km": 1011.0819341044125,
        "timestamp": "2025-12-27T06:41:31.196294+00:00",
        "meta_object_name": "COSMOS 2378",
        "meta_object_id": "2001-023A",
        "meta_epoch": "2025-12-26T10:31:21.747360",
        "meta_mean_motion": 13.7414309,
        "meta_eccentricity": 0.003327,
        "meta_inclination": 82.9272,
        "meta_ra_of_asc_node": 349.5666,
        "meta_arg_of_pericenter": 166.5607,
        "meta_mean_anomaly": 304.8436,
        "meta_ephemeris_type": 0,
        "meta_classification_type": "U",
        "meta_norad_cat_id": 26818,
        "meta_element_set_no": 999,
        "meta_rev_at_epoch": 23111,
        "meta_bstar": 4.6609e-05,
        "meta_mean_motion_dot": 5.9e-07,
        "meta_mean_motion_ddot": 0,
        "tle_line1": "1 26818U 01023A   25360.43844615  .00000059  00000+0  46609-4 0  9994",
        "tle_line2": "2 26818  82.9272 349.5666 0033270 166.5607 304.8436 13.74143090231110"
      },
      "geometry": {
        "type": "Point",
        "coordinates": [
          -20.4935602914847,
          -52.86839070102678
        ]
      }
    },
    {
      "type": "Feature",
      "properties": {
        "norad_id": 27436,
        "name": "COSMOS 2389",
        "group": "musson",
        "lat": -26.072268651353667,
        "lon": 119.69308313981219,
        "alt_km": 1021.1645231268712,
        "timestamp": "2025-12-27T06:41:31.196308+00:00",
        "meta_object_name": "COSMOS 2389",
        "meta_object_id": "2002-026A",
        "meta_epoch": "2025-12-26T23:02:37.613184",
        "meta_mean_motion": 13.75156197,
        "meta_eccentricity": 0.00469762,
        "meta_inclination": 82.9514,
        "meta_ra_of_asc_node": 296.4583,
        "meta_arg_of_pericenter": 21.8938,
        "meta_mean_anomaly": 47.5985,
        "meta_ephemeris_type": 0,
        "meta_classification_type": "U",
        "meta_norad_cat_id": 27436,
        "meta_element_set_no": 999,
        "meta_rev_at_epoch": 18344,
        "meta_bstar": 6.7460006e-05,
        "meta_mean_motion_dot": 8e-07,
        "meta_mean_motion_ddot": 0,
        "tle_line1": "1 27436U 02026A   25360.96015756  .00000080  00000+0  67460-4 0  9991",
        "tle_line2": "2 27436  82.9514 296.4583 0046976  21.8938  47.5985 13.75156197183446"
      },
      "geometry": {
        "type": "Point",
        "coordinates": [
          119.69308313981219,
          -26.072268651353667
        ]
      }
    },
    {
      "type": "Feature",
      "properties": {
        "norad_id": 27818,
        "name": "COSMOS 2398",
        "group": "musson",
        "lat": 13.626227052866993,
        "lon": -96.29568420341954,
        "alt_km": 979.5892297288583,
        "timestamp": "2025-12-27T06:41:31.196320+00:00",
        "meta_object_name": "COSMOS 2398",
        "meta_object_id": "2003-023A",
        "meta_epoch": "2025-12-26T23:40:55.878240",
        "meta_mean_motion": 13.72387299,
        "meta_eccentricity": 0.00326813,
        "meta_inclination": 82.9482,
        "meta_ra_of_asc_node": 262.2001,
        "meta_arg_of_pericenter": 73.8544,
        "meta_mean_anomaly": 298.0938,
        "meta_ephemeris_type": 0,
        "meta_classification_type": "U",
        "meta_norad_cat_id": 27818,
        "meta_element_set_no": 999,
        "meta_rev_at_epoch": 13012,
        "meta_bstar": 6.1519074e-05,
        "meta_mean_motion_dot": 7.2e-07,
        "meta_mean_motion_ddot": 0,
        "tle_line1": "1 27818U 03023A   25360.98675785  .00000072  00000+0  61519-4 0  9999",
        "tle_line2": "2 27818  82.9482 262.2001 0032681  73.8544 298.0938 13.72387299130122"
      },
      "geometry": {
        "type": "Point",
        "coordinates": [
          -96.29568420341954,
          13.626227052866993
        ]
      }
    },
    {
      "type": "Feature",
      "properties": {
        "norad_id": 28380,
        "name": "COSMOS 2407",
        "group": "musson",
        "lat": 54.81581712579953,
        "lon": -147.77681974917027,
        "alt_km": 949.5613290498977,
        "timestamp": "2025-12-27T06:41:31.196331+00:00",
        "meta_object_name": "COSMOS 2407",
        "meta_object_id": "2004-028A",
        "meta_epoch": "2025-12-26T22:15:15.157728",
        "meta_mean_motion": 13.76315258,
        "meta_eccentricity": 0.00396133,
        "meta_inclination": 82.9593,
        "meta_ra_of_asc_node": 202.388,
        "meta_arg_of_pericenter": 16.0024,
        "meta_mean_anomaly": 98.2276,
        "meta_ephemeris_type": 0,
        "meta_classification_type": "U",
        "meta_norad_cat_id": 28380,
        "meta_element_set_no": 999,
        "meta_rev_at_epoch": 7618,
        "meta_bstar": 5.1700617e-05,
        "meta_mean_motion_dot": 6.6e-07,
        "meta_mean_motion_ddot": 0,
        "tle_line1": "1 28380U 04028A   25360.92725877  .00000066  00000+0  51701-4 0  9997",
        "tle_line2": "2 28380  82.9593 202.3880 0039613  16.0024  98.2276 13.76315258 76184"
      },
      "geometry": {
        "type": "Point",
        "coordinates": [
          -147.77681974917027,
          54.81581712579953
        ]
      }
    },
    {
      "type": "Feature",
      "properties": {
        "norad_id": 28521,
        "name": "COSMOS 2414",
        "group": "musson",
        "lat": -24.824862327868654,
        "lon": -3.0523036113252084,
        "alt_km": 949.5053371615695,
        "timestamp": "2025-12-27T06:41:31.196342+00:00",
        "meta_object_name": "COSMOS 2414",
        "meta_object_id": "2005-002A",
        "meta_epoch": "2025-12-26T22:47:28.651488",
        "meta_mean_motion": 13.8790478,
        "meta_eccentricity": 0.00414424,
        "meta_inclination": 82.9489,
        "meta_ra_of_asc_node": 173.9145,
        "meta_arg_of_pericenter": 100.34,
        "meta_mean_anomaly": 260.2439,
        "meta_ephemeris_type": 0,
        "meta_classification_type": "U",
        "meta_norad_cat_id": 28521,
        "meta_element_set_no": 999,
        "meta_rev_at_epoch": 5992,
        "meta_bstar": 5.8440344e-05,
        "meta_mean_motion_dot": 8.6e-07,
        "meta_mean_motion_ddot": 0,
        "tle_line1": "1 28521U 05002A   25360.94963717  .00000086  00000+0  58440-4 0  9995",
        "tle_line2": "2 28521  82.9489 173.9145 0041442 100.3400 260.2439 13.87904780 59921"
      },
      "geometry": {
        "type": "Point",
        "coordinates": [
          -3.0523036113252084,
          -24.824862327868654
        ]
      }
    },
    {
      "type": "Feature",
      "properties": {
        "norad_id": 32052,
        "name": "COSMOS 2429",
        "group": "musson",
        "lat": 31.663595560439134,
        "lon": -23.052015489222264,
        "alt_km": 955.9039906523494,
        "timestamp": "2025-12-27T06:41:31.196352+00:00",
        "meta_object_name": "COSMOS 2429",
        "meta_object_id": "2007-038A",
        "meta_epoch": "2025-12-26T21:48:25.665696",
        "meta_mean_motion": 13.75150822,
        "meta_eccentricity": 0.00383868,
        "meta_inclination": 82.9809,
        "meta_ra_of_asc_node": 332.8632,
        "meta_arg_of_pericenter": 358.7852,
        "meta_mean_anomaly": 1.3205,
        "meta_ephemeris_type": 0,
        "meta_classification_type": "U",
        "meta_norad_cat_id": 32052,
        "meta_element_set_no": 999,
        "meta_rev_at_epoch": 91797,
        "meta_bstar": 6.4164743e-05,
        "meta_mean_motion_dot": 7.7e-07,
        "meta_mean_motion_ddot": 0,
        "tle_line1": "1 32052U 07038A   25360.90863039  .00000077  00000+0  64165-4 0  9993",
        "tle_line2": "2 32052  82.9809 332.8632 0038386 358.7852   1.3205 13.75150822917971"
      },
      "geometry": {
        "type": "Point",
        "coordinates": [
          -23.052015489222264,
          31.663595560439134
        ]
      }
    },
    {
      "type": "Feature",
      "properties": {
        "norad_id": 35635,
        "name": "COSMOS 2454",
        "group": "musson",
        "lat": 0.2914735150633008,
        "lon": 157.65969658546382,
        "alt_km": 919.6877301701206,
        "timestamp": "2025-12-27T06:41:31.196363+00:00",
        "meta_object_name": "COSMOS 2454",
        "meta_object_id": "2009-039A",
        "meta_epoch": "2025-12-26T20:51:38.645856",
        "meta_mean_motion": 13.89930373,
        "meta_eccentricity": 0.00199068,
        "meta_inclination": 82.956,
        "meta_ra_of_asc_node": 157.9342,
        "meta_arg_of_pericenter": 35.5854,
        "meta_mean_anomaly": 76.4086,
        "meta_ephemeris_type": 0,
        "meta_classification_type": "U",
        "meta_norad_cat_id": 35635,
        "meta_element_set_no": 999,
        "meta_rev_at_epoch": 83346,
        "meta_bstar": 5.8573957e-05,
        "meta_mean_motion_dot": 8.8e-07,
        "meta_mean_motion_ddot": 0,
        "tle_line1": "1 35635U 09039A   25360.86919729  .00000088  00000+0  58574-4 0  9998",
        "tle_line2": "2 35635  82.9560 157.9342 0019906  35.5854  76.4086 13.89930373833461"
      },
      "geometry": {
        "type": "Point",
        "coordinates": [
          157.65969658546382,
          0.2914735150633008
        ]
      }
    },
    {
      "type": "Feature",
      "properties": {
        "norad_id": 36519,
        "name": "COSMOS 2463",
        "group": "musson",
        "lat": 14.908215251739323,
        "lon": -165.85740763478466,
        "alt_km": 990.5069621278535,
        "timestamp": "2025-12-27T06:41:31.196374+00:00",
        "meta_object_name": "COSMOS 2463",
        "meta_object_id": "2010-017A",
        "meta_epoch": "2025-12-26T14:43:53.597856",
        "meta_mean_motion": 13.71650343,
        "meta_eccentricity": 0.0034842,
        "meta_inclination": 82.9603,
        "meta_ra_of_asc_node": 16.5163,
        "meta_arg_of_pericenter": 248.1363,
        "meta_mean_anomaly": 235.1487,
        "meta_ephemeris_type": 0,
        "meta_classification_type": "U",
        "meta_norad_cat_id": 36519,
        "meta_element_set_no": 999,
        "meta_rev_at_epoch": 78427,
        "meta_bstar": 3.8217e-05,
        "meta_mean_motion_dot": 4.9e-07,
        "meta_mean_motion_ddot": 0,
        "tle_line1": "1 36519U 10017A   25360.61381479  .00000049  00000+0  38217-4 0  9995",
        "tle_line2": "2 36519  82.9603  16.5163 0034842 248.1363 235.1487 13.71650343784275"
      },
      "geometry": {
        "type": "Point",
        "coordinates": [
          -165.85740763478466,
          14.908215251739323
        ]
      }
    }
  ]
}